{"type": "FeatureCollection", "features": [ {"type": "Feature", "properties": {"norad_id": 42741, "name": "EUTELSAT 172B", "group": "eutelsat", "lat": 0.00474135530764822, "lon": 114.99285161988807, "alt_km": 35786.97684331276, "timestamp": "2025-12-10T14:53:36.793707+00:00", "meta": {"OBJECT_NAME": "EUTELSAT 172B", "OBJECT_ID": "2017-029B", "EPOCH": "2025-12-10T04:14:38.556960", "MEAN_MOTION": 1.00269291, "ECCENTRICITY": 1.28e-05, "INCLINATION": 0.0117, "RA_OF_ASC_NODE": 93.13, "ARG_OF_PERICENTER": 134.9379, "MEAN_ANOMALY": 86.7534, "EPHEMERIS_TYPE": 0, "CLASSIFICATION_TYPE": "U", "NORAD_CAT_ID": 42741, "ELEMENT_SET_NO": 999, "REV_AT_EPOCH": 3183, "BSTAR": 0, "MEAN_MOTION_DOT": -3e-08, "MEAN_MOTION_DDOT": 0}, "tle": {"line1": "1 42741U 17029B   25344.17683515 -.00000003  00000+0  00000+0 0  9993", "line2": "2 42741   0.0117  93.1300 0000128 134.9379  86.7534  1.00269291 31830"}}, "geometry": {"type": "Point", "coordinates": [114.99285161988807, 0.00474135530764822]}}, {"type": "Feature", "properties": {"norad_id": 44334, "name": "EUTELSAT 7C", "group": "eutelsat", "lat": 0.046033691460696614, "lon": -49.99095169163358, "alt_km": 35780.73658437844, "timestamp": "2025-12-10T14:53:36.793719+00:00", "meta": {"OBJECT_NAME": "EUTELSAT 7C", "OBJECT_ID": "2019-034B", "EPOCH": "2025-12-10T00:54:38.687328", "MEAN_MOTION": 1.00271046, "ECCENTRICITY": 0.00033552, "INCLINATION": 0.0729, "RA_OF_ASC_NODE": 178.2937, "ARG_OF_PERICENTER": 64.3773, "MEAN_ANOMALY": 216.9906, "EPHEMERIS_TYPE": 0, "CLASSIFICATION_TYPE": "U", "NORAD_CAT_ID": 44334, "ELEMENT_SET_NO": 999, "REV_AT_EPOCH": 493, "BSTAR": 0, "MEAN_MOTION_DOT": 5.1e-07, "MEAN_MOTION_DDOT": 0}, "tle": {"line1": "1 44334U 19034B   25344.03794777  .00000051  00000+0  00000+0 0  9991", "line2": "2 44334   0.0729 178.2937 0003355  64.3773 216.9906  1.00271046  4931"}}, "geometry": {"type": "Point", "coordinates": [-49.99095169163358, 0.046033691460696614]}}, {"type": "Feature", "properties": {"norad_id": 44624, "name": "EUTELSAT 5 WEST B", "group": "eutelsat", "lat": -0.05798660147300687, "lon": -61.98315039692774, "alt_km": 35774.63395113676, "timestamp": "2025-12-10T14:53:36.793730+00:00", "meta": {"OBJECT_NAME": "EUTELSAT 5 WEST B", "OBJECT_ID": "2019-067A", "EPOCH": "2025-12-10T02:31:38.699328", "MEAN_MOTION": 1.00271292, "ECCENTRICITY": 0.00034741, "INCLINATION": 0.0635, "RA_OF_ASC_NODE": 343.3778, "ARG_OF_PERICENTER": 276.5826, "MEAN_ANOMALY": 212.0361, "EPHEMERIS_TYPE": 0, "CLASSIFICATION_TYPE": "U", "NORAD_CAT_ID": 44624, "ELEMENT_SET_NO": 999, "REV_AT_EPOCH": 2254, "BSTAR": 0, "MEAN_MOTION_DOT": -3.9e-07, "MEAN_MOTION_DDOT": 0}, "tle": {"line1": "1 44624U 19067A   25344.10530902 -.00000039  00000+0  00000+0 0  9992", "line2": "2 44624   0.0635 343.3778 0003474 276.5826 212.0361  1.00271292 22547"}}, "geometry": {"type": "Point", "coordinates": [-61.98315039692774, -0.05798660147300687]}}, {"type": "Feature", "properties": {"norad_id": 45027, "name": "EUTELSAT KONNECT", "group": "eutelsat", "lat": -0.050528930923328975, "lon": -49.81826996443971, "alt_km": 35780.200169123134, "timestamp": "2025-12-10T14:53:36.793741+00:00", "meta": {"OBJECT_NAME": "EUTELSAT KONNECT", "OBJECT_ID": "2020-005B", "EPOCH": "2025-12-10T00:54:38.687328", "MEAN_MOTION": 1.00268676, "ECCENTRICITY": 0.00017287, "INCLINATION": 0.0718, "RA_OF_ASC_NODE": 96.1497, "ARG_OF_PERICENTER": 191.1313, "MEAN_ANOMALY": 172.586, "EPHEMERIS_TYPE": 0, "CLASSIFICATION_TYPE": "U", "NORAD_CAT_ID": 45027, "ELEMENT_SET_NO": 999, "REV_AT_EPOCH": 2244, "BSTAR": 0, "MEAN_MOTION_DOT": 5.2e-07, "MEAN_MOTION_DDOT": 0}, "tle": {"line1": "1 45027U 20005B   25344.03794777  .00000052  00000+0  00000+0 0  9992", "line2": "2 45027   0.0718  96.1497 0001728 191.1313 172.5860  1.00268676 22446"}}, "geometry": {"type": "Point", "coordinates": [-49.81826996443971, -0.050528930923328975]}}, {"type": "Feature", "properties": {"norad_id": 49056, "name": "EUTELSAT QUANTUM", "group": "eutelsat", "lat": -0.007655748054652612, "lon": -9.26727844118628, "alt_km": 35783.074291028424, "timestamp": "2025-12-10T14:53:36.793752+00:00", "meta": {"OBJECT_NAME": "EUTELSAT QUANTUM", "OBJECT_ID": "2021-069B", "EPOCH": "2025-12-10T04:24:38.914272", "MEAN_MOTION": 1.00271276, "ECCENTRICITY": 0.00037259, "INCLINATION": 0.0161, "RA_OF_ASC_NODE": 19.5087, "ARG_OF_PERICENTER": 252.6452, "MEAN_ANOMALY": 280.869, "EPHEMERIS_TYPE": 0, "CLASSIFICATION_TYPE": "U", "NORAD_CAT_ID": 49056, "ELEMENT_SET_NO": 999, "REV_AT_EPOCH": 1603, "BSTAR": 0, "MEAN_MOTION_DOT": 1.29e-06, "MEAN_MOTION_DDOT": 0}, "tle": {"line1": "1 49056U 21069B   25344.18378373  .00000129  00000+0  00000+0 0  9990", "line2": "2 49056   0.0161  19.5087 0003725 252.6452 280.8690  1.00271276 16036"}}, "geometry": {"type": "Point", "coordinates": [-9.26727844118628, -0.007655748054652612]}}, {"type": "Feature", "properties": {"norad_id": 53765, "name": "EUTELSAT KONNECT VHTS", "group": "eutelsat", "lat": -0.03933717116213505, "lon": -54.274259344119045, "alt_km": 35782.080279208436, "timestamp": "2025-12-10T14:53:36.793762+00:00", "meta": {"OBJECT_NAME": "EUTELSAT KONNECT VHTS", "OBJECT_ID": "2022-110A", "EPOCH": "2025-12-10T04:08:38.649120", "MEAN_MOTION": 1.00271094, "ECCENTRICITY": 0.00025691, "INCLINATION": 0.0651, "RA_OF_ASC_NODE": 101.0901, "ARG_OF_PERICENTER": 137.0657, "MEAN_ANOMALY": 265.8631, "EPHEMERIS_TYPE": 0, "CLASSIFICATION_TYPE": "U", "NORAD_CAT_ID": 53765, "ELEMENT_SET_NO": 999, "REV_AT_EPOCH": 493, "BSTAR": 0, "MEAN_MOTION_DOT": 2e-07, "MEAN_MOTION_DDOT": 0}, "tle": {"line1": "1 53765U 22110A   25344.17266955  .00000020  00000+0  00000+0 0  9991", "line2": "2 53765   0.0651 101.0901 0002569 137.0657 265.8631  1.00271094  4934"}}, "geometry": {"type": "Point", "coordinates": [-54.274259344119045, -0.03933717116213505]}}, {"type": "Feature", "properties": {"norad_id": 54048, "name": "EUTELSAT HOTBIRD 13F", "group": "eutelsat", "lat": 0.015323182954295455, "lon": -44.00502941284738, "alt_km": 35780.02827084711, "timestamp": "2025-12-10T14:53:36.793773+00:00", "meta": {"OBJECT_NAME": "EUTELSAT HOTBIRD 13F", "OBJECT_ID": "2022-134A", "EPOCH": "2025-12-10T06:13:38.752320", "MEAN_MOTION": 1.0027045, "ECCENTRICITY": 0.00019748, "INCLINATION": 0.0508, "RA_OF_ASC_NODE": 290.7601, "ARG_OF_PERICENTER": 64.7163, "MEAN_ANOMALY": 190.1902, "EPHEMERIS_TYPE": 0, "CLASSIFICATION_TYPE": "U", "NORAD_CAT_ID": 54048, "ELEMENT_SET_NO": 999, "REV_AT_EPOCH": 1148, "BSTAR": 0, "MEAN_MOTION_DOT": 9e-07, "MEAN_MOTION_DDOT": 0}, "tle": {"line1": "1 54048U 22134A   25344.25947630  .00000090  00000+0  00000+0 0  9994", "line2": "2 54048   0.0508 290.7601 0001974  64.7163 190.1902  1.00270450 11484"}}, "geometry": {"type": "Point", "coordinates": [-44.00502941284738, 0.015323182954295455]}}, {"type": "Feature", "properties": {"norad_id": 54225, "name": "EUTELSAT HOTBIRD 13G", "group": "eutelsat", "lat": 0.0377873584405304, "lon": -44.00379922928993, "alt_km": 35792.41177217792, "timestamp": "2025-12-10T14:53:36.793783+00:00", "meta": {"OBJECT_NAME": "EUTELSAT HOTBIRD 13G", "OBJECT_ID": "2022-146A", "EPOCH": "2025-12-10T06:13:38.752320", "MEAN_MOTION": 1.00268356, "ECCENTRICITY": 0.00018859, "INCLINATION": 0.0515, "RA_OF_ASC_NODE": 237.9533, "ARG_OF_PERICENTER": 304.8699, "MEAN_ANOMALY": 2.8172, "EPHEMERIS_TYPE": 0, "CLASSIFICATION_TYPE": "U", "NORAD_CAT_ID": 54225, "ELEMENT_SET_NO": 999, "REV_AT_EPOCH": 557, "BSTAR": 0, "MEAN_MOTION_DOT": 9e-07, "MEAN_MOTION_DDOT": 0}, "tle": {"line1": "1 54225U 22146A   25344.25947630  .00000090  00000+0  00000+0 0  9994", "line2": "2 54225   0.0515 237.9533 0001885 304.8699   2.8172  1.00268356  5572"}}, "geometry": {"type": "Point", "coordinates": [-44.00379922928993, 0.0377873584405304]}}, {"type": "Feature", "properties": {"norad_id": 54259, "name": "EUTELSAT 10B", "group": "eutelsat", "lat": -0.043299271191442515, "lon": -47.02991994856028, "alt_km": 35789.37236309371, "timestamp": "2025-12-10T14:53:36.793793+00:00", "meta": {"OBJECT_NAME": "EUTELSAT 10B", "OBJECT_ID": "2022-157A", "EPOCH": "2025-12-10T04:08:38.649120", "MEAN_MOTION": 1.00269361, "ECCENTRICITY": 7.806e-05, "INCLINATION": 0.0609, "RA_OF_ASC_NODE": 99.0868, "ARG_OF_PERICENTER": 70.119, "MEAN_ANOMALY": 342.0822, "EPHEMERIS_TYPE": 0, "CLASSIFICATION_TYPE": "U", "NORAD_CAT_ID": 54259, "ELEMENT_SET_NO": 999, "REV_AT_EPOCH": 1113, "BSTAR": 0, "MEAN_MOTION_DOT": 7.1e-07, "MEAN_MOTION_DDOT": 0}, "tle": {"line1": "1 54259U 22157A   25344.17266955  .00000071  00000+0  00000+0 0  9997", "line2": "2 54259   0.0609  99.0868 0000780  70.1190 342.0822  1.00269361 11130"}}, "geometry": {"type": "Point", "coordinates": [-47.02991994856028, -0.043299271191442515]}}, {"type": "Feature", "properties": {"norad_id": 59346, "name": "EUTELSAT 36D", "group": "eutelsat", "lat": -0.00600411707481372, "lon": -21.159723163609303, "alt_km": 35784.73374378972, "timestamp": "2025-12-10T14:53:36.793803+00:00", "meta": {"OBJECT_NAME": "EUTELSAT 36D", "OBJECT_ID": "2024-059A", "EPOCH": "2025-12-10T04:48:38.704608", "MEAN_MOTION": 1.00268969, "ECCENTRICITY": 4.973e-05, "INCLINATION": 0.0175, "RA_OF_ASC_NODE": 352.6536, "ARG_OF_PERICENTER": 342.7613, "MEAN_ANOMALY": 211.7763, "EPHEMERIS_TYPE": 0, "CLASSIFICATION_TYPE": "U", "NORAD_CAT_ID": 59346, "ELEMENT_SET_NO": 999, "REV_AT_EPOCH": 625, "BSTAR": 0, "MEAN_MOTION_DOT": 0, "MEAN_MOTION_DDOT": 0}, "tle": {"line1": "1 59346U 24059A   25344.20044797  .00000000  00000+0  00000+0 0  9996", "line2": "2 59346   0.0175 352.6536 0000497 342.7613 211.7763  1.00268969  6259"}}, "geometry": {"type": "Point", "coordinates": [-21.159723163609303, -0.00600411707481372]}}]}